1 34651U 97051KC  26114.91536573  .00004767  00000+0  17411-2 0  9993
2 34651  86.2773  83.7675 0136008 133.3956 227.8658 14.27793296877952
